NORAD_CAT_ID,OBJECT_NAME,OBJECT_TYPE,EPOCH,MEAN_MOTION,ECCENTRICITY,INCLINATION,RA_OF_ASC_NODE,ARG_OF_PERICENTER,MEAN_ANOMALY,BSTAR,MEAN_MOTION_DOT,MEAN_MOTION_DDOT,TLE_LINE0,TLE_LINE1,TLE_LINE2,SEMIMAJOR_AXIS,PERIOD,APOGEE,PERIGEE,DECAYED
52876.0,STARLINK-4200,PAYLOAD,2023-08-22 11:36:34,15.08843449,0.0001354,53.2162,229.9762,95.3781,264.7366,7.5806e-05,9.19e-06,0.0,0 STARLINK-4200,1 52876U 22062AY  23234.48373363  .00000919  00000-0  75806-4 0  9990,2 52876  53.2162 229.9762 0001354  95.3781 264.7366 15.08843449 66127,6917.87,95.437,540.672,538.798,0.0
52876.0,STARLINK-4200,PAYLOAD,2023-08-23 00:19:40,15.08830682,0.0001383,53.217,227.5949,101.6323,258.4824,1.9099e-05,1.6e-07,0.0,0 STARLINK-4200,1 52876U 22062AY  23235.01366451  .00000016  00000-0  19099-4 0  9990,2 52876  53.2170 227.5949 0001383 101.6323 258.4824 15.08830682 66205,6917.909,95.438,540.731,538.817,0.0
52876.0,STARLINK-4200,PAYLOAD,2023-08-23 09:51:59,15.08838499,0.0001348,53.2162,225.8129,93.7656,266.349,2.8046e-05,1.58e-06,0.0,0 STARLINK-4200,1 52876U 22062AY  23235.41110090  .00000158  00000-0  28046-4 0  9999,2 52876  53.2162 225.8129 0001348  93.7656 266.3490 15.08838499 66265,6917.885,95.438,540.683,538.817,0.0
52876.0,STARLINK-4200,PAYLOAD,2023-08-24 11:18:09,15.08839027,0.0001428,53.2171,221.0537,96.736,263.3795,2.1765e-05,5.8e-07,0.0,0 STARLINK-4200,1 52876U 22062AY  23236.47094400  .00000058  00000-0  21765-4 0  9992,2 52876  53.2171 221.0537 0001428  96.7360 263.3795 15.08839027 65936,6917.883,95.438,540.736,538.76,0.0
52876.0,STARLINK-4200,PAYLOAD,2023-08-25 01:36:37,15.08837731,0.0001326,53.2163,218.3782,96.9148,263.1995,5.3418e-05,5.62e-06,0.0,0 STARLINK-4200,1 52876U 22062AY  23237.06710536  .00000562  00000-0  53418-4 0  9993,2 52876  53.2163 218.3782 0001326  96.9148 263.1995 15.08837731 66516,6917.887,95.438,540.67,538.835,0.0
52876.0,STARLINK-4200,PAYLOAD,2023-08-25 07:58:09,15.0884412,0.0001372,53.2166,217.1894,92.9672,267.1477,0.00010754,1.424e-05,0.0,0 STARLINK-4200,1 52876U 22062AY  23237.33206010  .00001424  00000-0  10754-3 0  9993,2 52876  53.2166 217.1894 0001372  92.9672 267.1477 15.08844120 66552,6917.868,95.437,540.682,538.784,0.0
52876.0,STARLINK-4200,PAYLOAD,2023-08-26 01:27:25,15.08836379,0.0001401,53.2164,213.919,89.0191,271.0961,3.6262e-05,2.89e-06,0.0,0 STARLINK-4200,1 52876U 22062AY  23238.06070870  .00000289  00000-0  36262-4 0  9998,2 52876  53.2164 213.9190 0001401  89.0191 271.0961 15.08836379 66660,6917.891,95.438,540.726,538.787,0.0
52876.0,STARLINK-4200,PAYLOAD,2023-08-26 07:48:57,15.08841859,0.0001409,53.2162,212.7295,86.3932,273.7221,7.7254e-05,9.42e-06,0.0,0 STARLINK-4200,1 52876U 22062AY  23238.32566443  .00000942  00000-0  77254-4 0  9995,2 52876  53.2162 212.7295 0001409  86.3932 273.7221 15.08841859 66210,6917.875,95.437,540.714,538.765,0.0
52876.0,STARLINK-4200,PAYLOAD,2023-08-27 07:39:43,15.08851167,0.0001408,53.2164,208.2687,87.3868,272.7285,8.0204e-05,9.89e-06,0.0,0 STARLINK-4200,1 52876U 22062AY  23239.31925663  .00000989  00000-0  80204-4 0  9998,2 52876  53.2164 208.2687 0001408  87.3868 272.7285 15.08851167 66363,6917.846,95.437,540.685,538.737,0.0
52876.0,STARLINK-4200,PAYLOAD,2023-08-28 01:08:59,15.0883527,0.0001516,53.2172,204.9988,105.4431,254.6728,-2.0257e-05,-6.1e-06,0.0,0 STARLINK-4200,1 52876U 22062AY  23240.04790886 -.00000610  00000-0 -20257-4 0  9992,2 52876  53.2172 204.9988 0001516 105.4431 254.6728 15.08835270 66961,6917.895,95.438,540.809,538.711,0.0
52876.0,STARLINK-4200,PAYLOAD,2023-08-28 04:19:45,15.0883934,0.0001227,53.2162,204.4034,92.7348,267.3784,-2.819e-06,-3.33e-06,0.0,0 STARLINK-4200,1 52876U 22062AY  23240.18038597 -.00000333  00000-0 -28190-5 0  9998,2 52876  53.2162 204.4034 0001227  92.7348 267.3784 15.08839340 66494,6917.882,95.438,540.596,538.899,0.0
52876.0,STARLINK-4200,PAYLOAD,2023-08-29 00:59:46,15.08842898,0.0001218,53.2161,200.5382,97.9218,262.1912,-3.1978e-05,-7.97e-06,0.0,0 STARLINK-4200,1 52876U 22062AY  23241.04150519 -.00000797  00000-0 -31978-4 0  9994,2 52876  53.2161 200.5382 0001218  97.9218 262.1912 15.08842898 67117,6917.872,95.437,540.579,538.894,0.0
52876.0,STARLINK-4200,PAYLOAD,2023-08-29 07:21:18,15.088494,0.0001274,53.2161,199.3478,102.9055,257.2079,-3.5067e-05,-8.46e-06,0.0,0 STARLINK-4200,1 52876U 22062AY  23241.30646052 -.00000846  00000-0 -35067-4 0  9993,2 52876  53.2161 199.3478 0001274 102.9055 257.2079 15.08849400 67155,6917.852,95.437,540.598,538.835,0.0
52876.0,STARLINK-4200,PAYLOAD,2023-08-29 13:42:51,15.08836825,0.0001537,53.2158,198.1578,113.7358,246.3796,2.1996e-05,6.2e-07,0.0,0 STARLINK-4200,1 52876U 22062AY  23241.57142673  .00000062  00000-0  21996-4 0  9996,2 52876  53.2158 198.1578 0001537 113.7358 246.3796 15.08836825 66709,6917.89,95.438,540.818,538.692,0.0
52876.0,STARLINK-4200,PAYLOAD,2023-08-30 00:50:33,15.08829046,0.0001222,53.2164,196.0777,102.6942,257.4187,-1.3726e-05,-5.06e-06,0.0,0 STARLINK-4200,1 52876U 22062AY  23242.03511529 -.00000506  00000-0 -13726-4 0  9995,2 52876  53.2164 196.0777 0001222 102.6942 257.4187 15.08829046 67267,6917.914,95.438,540.624,538.934,0.0
52876.0,STARLINK-4200,PAYLOAD,2023-08-30 13:33:38,15.0883472,0.0001274,53.217,193.6983,88.9219,271.1919,-1.3772e-06,-3.1e-06,0.0,0 STARLINK-4200,1 52876U 22062AY  23242.56503339 -.00000310  00000-0 -13772-5 0  9998,2 52876  53.2170 193.6983 0001274  88.9219 271.1919 15.08834720 67346,6917.897,95.438,540.643,538.88,0.0
52876.0,STARLINK-4200,PAYLOAD,2023-08-31 07:02:52,15.08841876,9.48e-05,53.2169,190.4273,86.8955,273.2145,0.00011392,1.526e-05,0.0,0 STARLINK-4200,1 52876U 22062AY  23243.29366761  .00001526  00000-0  11392-3 0  9997,2 52876  53.2169 190.4273 0000948  86.8955 273.2145 15.08841876 67458,6917.875,95.437,540.395,539.084,0.0
52876.0,STARLINK-4200,PAYLOAD,2023-09-01 05:18:18,15.08832098,0.0001811,53.2169,186.2684,92.1213,267.9987,5.5056e-05,5.88e-06,0.0,0 STARLINK-4200,1 52876U 22062AY  23244.22104382  .00000588  00000-0  55056-4 0  9993,2 52876  53.2169 186.2684 0001811  92.1213 267.9987 15.08832098 67599,6917.905,95.438,541.022,538.517,0.0
52876.0,STARLINK-4200,PAYLOAD,2023-09-01 22:47:31,15.08858048,6.88e-05,53.2188,182.9952,245.2354,114.8567,-0.0006772,-0.00011054,0.0,0 STARLINK-4200,1 52876U 22062AY  23244.94967372 -.00011054  00000-0 -67720-3 0  9990,2 52876  53.2188 182.9952 0000688 245.2354 114.8567 15.08858048 67709,6917.825,95.436,540.166,539.214,0.0
52876.0,STARLINK-4200,PAYLOAD,2023-09-02 05:09:03,15.08852125,0.0001616,53.2151,181.8042,84.3498,275.7678,0.00011674,1.571e-05,0.0,0 STARLINK-4200,1 52876U 22062AY  23245.21462373  .00001571  00000-0  11674-3 0  9990,2 52876  53.2151 181.8042 0001616  84.3498 275.7678 15.08852125 67744,6917.843,95.437,540.826,538.59,0.0
52876.0,STARLINK-4200,PAYLOAD,2023-09-02 19:27:32,15.08840411,0.0002153,53.2119,179.1297,74.2593,285.8636,6.7892e-05,7.92e-06,0.0,0 STARLINK-4200,1 52876U 22062AY  23245.81079363  .00000792  00000-0  67892-4 0  9997,2 52876  53.2119 179.1297 0002153  74.2593 285.8636 15.08840411 67348,6917.879,95.438,541.234,538.255,0.0
52876.0,STARLINK-4200,PAYLOAD,2023-09-03 01:49:05,15.08863533,0.0002451,53.2139,177.9355,83.9786,276.1486,-0.00027016,-4.589e-05,0.0,0 STARLINK-4200,1 52876U 22062AY  23246.07575284 -.00004589  00000-0 -27016-3 0  9992,2 52876  53.2139 177.9355 0002451  83.9786 276.1486 15.08863533 67877,6917.808,95.436,541.369,537.978,0.0
52876.0,STARLINK-4200,PAYLOAD,2023-09-03 12:56:47,15.08837816,0.0001666,53.2148,175.8549,93.2065,266.9118,-3.1733e-05,-7.93e-06,0.0,0 STARLINK-4200,1 52876U 22062AY  23246.53943631 -.00000793  00000-0 -31733-4 0  9993,2 52876  53.2148 175.8549 0001666  93.2065 266.9118 15.08837816 67458,6917.887,95.438,540.905,538.6,0.0
52876.0,STARLINK-4200,PAYLOAD,2023-09-04 04:50:38,15.08837397,0.0002142,53.2164,172.8816,109.2679,250.8545,1.5392e-05,-4.3e-07,0.0,0 STARLINK-4200,1 52876U 22062AY  23247.20183554 -.00000043  00000-0  15392-4 0  9998,2 52876  53.2164 172.8816 0002142 109.2679 250.8545 15.08837397 67550,6917.888,95.438,541.235,538.272,0.0
52876.0,STARLINK-4200,PAYLOAD,2023-09-04 19:09:06,15.08837886,0.0001579,53.2166,170.2057,96.8298,263.2874,2.6068e-05,1.27e-06,0.0,0 STARLINK-4200,1 52876U 22062AY  23247.79799627  .00000127  00000-0  26068-4 0  9990,2 52876  53.2166 170.2057 0001579  96.8298 263.2874 15.08837886 68133,6917.887,95.438,540.844,538.66,0.0
52876.0,STARLINK-4200,PAYLOAD,2023-09-05 04:41:25,15.08841581,0.0001531,53.2167,168.4212,98.9697,261.1468,8.7864e-05,1.111e-05,0.0,0 STARLINK-4200,1 52876U 22062AY  23248.19543197  .00001111  00000-0  87864-4 0  9999,2 52876  53.2167 168.4212 0001531  98.9697 261.1468 15.08841581 67705,6917.876,95.437,540.8,538.681,0.0
52876.0,STARLINK-4200,PAYLOAD,2023-09-06 01:21:26,15.08835713,0.0001414,53.2179,164.5591,95.9559,264.1595,0.00011994,1.621e-05,0.0,0 STARLINK-4200,1 52876U 22062AY  23249.05655572  .00001621  00000-0  11994-3 0  9992,2 52876  53.2179 164.5591 0001414  95.9559 264.1595 15.08835713 68322,6917.893,95.438,540.737,538.78,0.0
52876.0,STARLINK-4200,PAYLOAD,2023-09-06 18:50:41,15.08838715,0.000141,53.2169,161.2867,100.1612,259.9539,-9.8897e-06,-4.45e-06,0.0,0 STARLINK-4200,1 52876U 22062AY  23249.78519931 -.00000445  00000-0 -98897-5 0  9994,2 52876  53.2169 161.2867 0001410 100.1612 259.9539 15.08838715 67948,6917.884,95.438,540.725,538.774,0.0
52876.0,STARLINK-4200,PAYLOAD,2023-09-07 01:12:13,15.08840698,0.0001508,53.2179,160.0993,101.1711,258.9451,1.7593e-05,-8e-08,0.0,0 STARLINK-4200,1 52876U 22062AY  23250.05015732 -.00000008  00000-0  17593-4 0  9993,2 52876  53.2179 160.0993 0001508 101.1711 258.9451 15.08840698 67984,6917.878,95.438,540.786,538.7,0.0
52876.0,STARLINK-4200,PAYLOAD,2023-09-08 01:03:00,15.08836604,0.0001431,53.2181,155.6392,97.8782,262.2373,5.5869e-05,6.01e-06,0.0,0 STARLINK-4200,1 52876U 22062AY  23251.04375978  .00000601  00000-0  55869-4 0  9990,2 52876  53.2181 155.6392 0001431  97.8782 262.2373 15.08836604 68629,6917.891,95.438,540.746,538.766,0.0
